ONEWEB-0721             
1 56725U 23068R   26170.25834940  .00000128  00000+0  27127-3 0  9997
2 56725  86.6766  84.8555 0001889  77.8069 282.3275 13.22469562158210
ONEWEB-0015             
1 61594U 24188A   26170.06427868 -.00000376  00000+0 -10963-2 0  9993
2 61594  87.8882  20.7193 0002128  73.1854 286.9507 13.11414714 84704
ONEWEB-0687             
1 61595U 24188B   26170.05325077  .00000033  00000+0  51319-4 0  9992
2 61595  87.9126   5.5052 0002358  86.1409 273.9992 13.17648545 86148
ONEWEB-0688             
1 61596U 24188C   26170.23380994  .00000009  00000+0 -98708-5 0  9990
2 61596  87.9127   5.4690 0002594  62.6048 297.5347 13.17649277 86168
ONEWEB-0689             
1 61597U 24188D   26170.09818680  .00000251  00000+0  67201-3 0  9993
2 61597  87.8898  20.6710 0002088  91.0087 269.1280 13.11420706 84709
ONEWEB-0690             
1 61598U 24188E   26170.10837930  .00000521  00000+0  14344-2 0  9994
2 61598  87.8892  20.6804 0001233  75.8431 284.2834 13.11416793 84885
ONEWEB-0691             
1 61599U 24188F   26170.10329444  .00000446  00000+0  12213-2 0  9990
2 61599  87.8904  20.5904 0002112  78.3930 281.7435 13.11418802 84735
ONEWEB-0692             
1 61600U 24188G   26170.27622998  .00000348  00000+0  94594-3 0  9995
2 61600  87.8883  20.6688 0001960 109.8821 250.2518 13.11413962 84749
ONEWEB-0693             
1 61601U 24188H   26170.09374841  .00000011  00000+0 -59223-5 0  9997
2 61601  87.9123   5.5170 0001245  69.1032 291.0233 13.17648596 86135
ONEWEB-0695             
1 61602U 24188J   26170.09990077  .00000462  00000+0  12687-2 0  9992
2 61602  87.8878  20.6957 0002422  98.5954 261.5449 13.11418269 84719
ONEWEB-0697             
1 61603U 24188K   26170.28470016  .00000019  00000+0  18988-4 0  9990
2 61603  87.8883  20.6494 0001878 110.5150 249.6180 13.11414350 84726
ONEWEB-0698             
1 61604U 24188L   26170.03377679  .00000602  00000+0  16622-2 0  9994
2 61604  87.8883  20.7133 0001042 123.1768 236.9460 13.11416513 84718
ONEWEB-0699             
1 61605U 24188M   26170.04801274  .00002632  00000+0  74964-2 0  9997
2 61605  87.8832  35.8960 0001671 105.5608 254.5704 13.10410498 83556
ONEWEB-0700             
1 61606U 24188N   26170.04968682  .00002240  00000+0  63759-2 0  9990
2 61606  87.8847  35.8050 0001865 103.8469 256.2866 13.10405520 83541
ONEWEB-0701             
1 61607U 24188P   26170.06639333 -.00001235  00000+0 -35741-2 0  9996
2 61607  87.8827  35.8916 0001528 112.7194 247.4095 13.10356531 83555
ONEWEB-0702             
1 61608U 24188Q   26170.07953721 -.00000652  00000+0 -18763-2 0  9995
2 61608  87.8902  20.6105 0002172 114.3530 245.7825 13.11417932 84737
ONEWEB-0704             
1 61609U 24188R   26170.05470461  .00001313  00000+0  37228-2 0  9999
2 61609  87.8846  35.8832 0002218 110.0158 250.1208 13.10391598 83530
ONEWEB-0705             
1 61610U 24188S   26170.05970068 -.00000317  00000+0 -94447-3 0  9991
2 61610  87.8844  35.8878 0002712  95.7909 264.3528 13.10376928 75704
ONEWEB-0706             
1 61611U 24188T   26170.04466436  .00002285  00000+0  65025-2 0  9993
2 61611  87.8841  35.8964 0002835  95.8752 264.2699 13.10424045 83623
ONEWEB-0707             
1 61612U 24188U   26170.05136269  .00002059  00000+0  58598-2 0  9999
2 61612  87.8844  35.8880 0002131  97.9362 262.2007 13.10399270 83568
ONEWEB-0708             
1 61613U 24188V   26170.06975153 -.00003315  00000+0 -95399-2 0  9992
2 61613  87.8823  35.9027 0002480  84.1142 276.0268 13.10347602 83543
